{
 "type": "FeatureCollection",
 "features": [
  {
   "type": "Feature",
   "geometry": {
    "type": "LineString",
    "coordinates": [
     [
      106.698852,
      10.768413
     ],
     [
      106.699773,
      10.767251
     ]
    ]
   },
   "properties": {
    "id": "hcmc-0001",
    "name_vi": "Đường Calmette (đoạn Nguyễn Thái Bình – Nguyễn Công Trứ)",
    "name_en": "Calmette Street (Nguyen Thai Binh – Nguyen Cong Tru section)",
    "street": "Calmette",
    "ward": "Phường Bến Thành",
    "legacy_district": "Quận 1",
    "cause": "both",
    "depth_cm": {
     "min": 15,
     "max": 30
    },
    "frequency": "frequent",
    "status": "active",
    "past_events": [
     {
      "date": "2023-10-29",
      "cause": "tide",
      "description_vi": "Ngập nặng nhất ở ngã tư Nguyễn Công Trứ – Calmette và Nguyễn Thái Bình – Calmette.",
      "description_en": "Worst flooding at the Nguyen Cong Tru and Nguyen Thai Binh intersections.",
      "source": "https://tuoitre.vn/bung-nap-cong-giai-cuu-duong-trung-tam-tp-hcm-ngap-trong-trieu-cuong-20231029180941147.htm"
     }
    ],
    "sources": [
     "https://vnexpress.net/tra-cuu-159-diem-ngap-thuong-xuyen-tai-tp-hcm-5127780.html",
     "https://thanhnien.vn/danh-sach-23-tuyen-duong-bi-ngap-nuoc-do-trieu-cuong-o-tphcm-185251120195250754.htm",
     "https://tuoitre.vn/9-thang-dau-nam-toan-tp-hcm-co-30-tuyen-duong-ngap-khi-mua-20241015175215262.htm",
     "https://tuoitre.vn/bung-nap-cong-giai-cuu-duong-trung-tam-tp-hcm-ngap-trong-trieu-cuong-20231029180941147.htm",
     "https://en.wikipedia.org/wiki/Saigon_ward"
    ],
    "notes": "Rain + tide. Official tide depth 15–30 cm when tide exceeds alarm level (1.4 m at Phú An).",
    "last_verified": "2026-10-09"
   }
  },
  {
   "type": "Feature",
   "geometry": {
    "type": "Polygon",
    "coordinates": [
     [
      [
       106.693288,
       10.768668
      ],
      [
       106.690483,
       10.767544
      ],
      [
       106.69134,
       10.766243
      ],
      [
       106.693996,
       10.767423
      ],
      [
       106.693288,
       10.768668
      ]
     ]
    ]
   },
   "properties": {
    "id": "hcmc-0002",
    "name_vi": "Khu phố Tây Bùi Viện – Phạm Ngũ Lão (giữa Đề Thám và Đỗ Quang Đẩu)",
    "name_en": "Bui Vien – Pham Ngu Lao backpacker area (between De Tham and Do Quang Dau)",
    "street": "Phạm Ngũ Lão; Bùi Viện; Đỗ Quang Đẩu",
    "ward": "Phường Bến Thành",
    "legacy_district": "Quận 1",
    "cause": "rain",
    "depth_cm": {
     "min": 15,
     "max": 30
    },
    "frequency": "frequent",
    "status": "active",
    "past_events": [
     {
      "date": "2025-11-04",
      "cause": "rain",
      "description_vi": "Phố đi bộ Bùi Viện ngập sâu đến hơn nửa đêm.",
      "description_en": "Bui Vien walking street deeply flooded until after midnight.",
      "source": "https://lifestyle.zingnews.vn/pho-tay-bui-vien-ngap-sau-mua-lon-o-tphcm-post1599949.html"
     }
    ],
    "sources": [
     "https://vnexpress.net/tra-cuu-159-diem-ngap-thuong-xuyen-tai-tp-hcm-5127780.html",
     "https://tuoitre.vn/9-thang-dau-nam-toan-tp-hcm-co-30-tuyen-duong-ngap-khi-mua-20241015175215262.htm",
     "https://thanhnien.vn/nhung-tuyen-duong-nao-o-tphcm-he-mua-lon-la-ngap-185261004175107092.htm",
     "https://lifestyle.zingnews.vn/pho-tay-bui-vien-ngap-sau-mua-lon-o-tphcm-post1599949.html"
    ],
    "notes": "Group description covering Bùi Viện, Đỗ Quang Đẩu, Phạm Ngũ Lão, Lê Lai, Lê Thánh Tôn.",
    "last_verified": "2026-10-09"
   }
  },
  {
   "type": "Feature",
   "geometry": {
    "type": "LineString",
    "coordinates": [
     [
      106.721277,
      10.755879
     ],
     [
      106.720878,
      10.754985
     ],
     [
      106.720465,
      10.754257
     ],
     [
      106.71959,
      10.75316
     ],
     [
      106.718403,
      10.752398
     ],
     [
      106.717665,
      10.752003
     ],
     [
      106.717133,
      10.751879
     ],
     [
      106.715833,
      10.751869
     ]
    ]
   },
   "properties": {
    "id": "hcmc-0003",
    "name_vi": "Đường Trần Xuân Soạn (đoạn Huỳnh Tấn Phát – Lâm Văn Bền)",
    "name_en": "Tran Xuan Soan Street (Huynh Tan Phat – Lam Van Ben section)",
    "street": "Trần Xuân Soạn",
    "ward": "Phường Tân Thuận",
    "legacy_district": "Quận 7",
    "cause": "tide",
    "depth_cm": {
     "min": 15,
     "max": 40
    },
    "frequency": "frequent",
    "status": "active",
    "past_events": [
     {
      "date": "2025-11-20",
      "cause": "tide",
      "description_vi": "Tiếp tục ngập ngày thứ hai của đợt triều cường.",
      "description_en": "Flooded again on day two of the spring tide.",
      "source": "https://tienphong.vn/trieu-cuong-tan-cong-khu-vuc-cho-lon-o-tphcm-post1798035.tpo"
     },
     {
      "date": "2025-11-19",
      "cause": "both",
      "description_vi": "Ngập một đoạn gần 1 km, khá sâu.",
      "description_en": "Nearly 1 km flooded, fairly deep.",
      "source": "https://tienphong.vn/trieu-cuong-dang-cao-nguoi-dan-ngup-lan-giua-bien-nuoc-post1797702.tpo"
     },
     {
      "date": "2025-11-06",
      "cause": "tide",
      "description_vi": "Ngập 30–60 cm (mô tả chung nhóm tuyến).",
      "description_en": "30–60 cm (group description).",
      "source": "https://vtv.vn/trieu-cuong-tai-tp-ho-chi-minh-vuot-dinh-lich-su-nhieu-khu-vuc-ngap-trong-bien-nuoc-10025110707063616.htm",
      "depth_cm": 60
     },
     {
      "date": "2024-09-20",
      "cause": "tide",
      "description_vi": "Đoạn gần cầu Tân Thuận 2 ngập quá nửa bánh xe.",
      "description_en": "Near Tan Thuan 2 Bridge, over half the wheel height.",
      "source": "https://news.tuoitre.vn/flooding-prone-street-submerged-as-high-tides-rain-combine-in-ho-chi-minh-city-10382059.htm",
      "depth_cm": 40
     },
     {
      "date": "2023-10-29",
      "cause": "tide",
      "description_vi": "Triều cường ngập gần lút bánh xe đạp.",
      "description_en": "Tide nearly covered bicycle wheels.",
      "source": "https://tuoitre.vn/bung-nap-cong-giai-cuu-duong-trung-tam-tp-hcm-ngap-trong-trieu-cuong-20231029180941147.htm"
     }
    ],
    "sources": [
     "https://vnexpress.net/tra-cuu-159-diem-ngap-thuong-xuyen-tai-tp-hcm-5127780.html",
     "https://dantri.com.vn/thoi-su/tphcm-cong-bo-34-tuyen-duong-ngap-do-mua-va-trieu-cuong-20260625181340802.htm",
     "https://thanhnien.vn/danh-sach-23-tuyen-duong-bi-ngap-nuoc-do-trieu-cuong-o-tphcm-185251120195250754.htm",
     "https://tuoitre.vn/danh-sach-122-diem-ngap-do-mua-lon-trieu-cuong-tai-tphcm-100261007160246997.htm",
     "https://tuoitre.vn/trieu-cuong-1-82m-gay-ngap-nhieu-noi-o-tp-hcm-so-xay-dung-neu-nguyen-nhan-va-giai-phap-ung-pho-20251030154940159.htm",
     "https://vtv.vn/trieu-cuong-tai-tp-ho-chi-minh-vuot-dinh-lich-su-nhieu-khu-vuc-ngap-trong-bien-nuoc-10025110707063616.htm",
     "https://www.sggp.org.vn/tphcm-trieu-cuong-dang-cao-nhieu-tuyen-duong-ngap-sau-post822156.html",
     "https://tuoitre.vn/bung-nap-cong-giai-cuu-duong-trung-tam-tp-hcm-ngap-trong-trieu-cuong-20231029180941147.htm",
     "https://tienphong.vn/trieu-cuong-dang-cao-khu-vuc-cho-lon-o-tphcm-hoa-song-post1793751.tpo",
     "https://tienphong.vn/trieu-cuong-tan-cong-khu-vuc-cho-lon-o-tphcm-post1798035.tpo",
     "https://tienphong.vn/trieu-cuong-dang-cao-nguoi-dan-ngup-lan-giua-bien-nuoc-post1797702.tpo",
     "https://news.tuoitre.vn/flooding-prone-street-submerged-as-high-tides-rain-combine-in-ho-chi-minh-city-10382059.htm"
    ],
    "notes": "",
    "last_verified": "2026-10-09"
   }
  },
  {
   "type": "Feature",
   "geometry": {
    "type": "Point",
    "coordinates": [
     106.732016,
     10.730775
    ]
   },
   "properties": {
    "id": "hcmc-0004",
    "name_vi": "Giao lộ Huỳnh Tấn Phát – Phú Thuận",
    "name_en": "Huynh Tan Phat – Phu Thuan intersection",
    "street": "Huỳnh Tấn Phát; Phú Thuận",
    "ward": "Phường Phú Thuận",
    "legacy_district": "Quận 7",
    "cause": "both",
    "depth_cm": {
     "min": 15,
     "max": 30
    },
    "frequency": "frequent",
    "status": "active",
    "past_events": [
     {
      "date": "2025-10-23",
      "cause": "tide",
      "description_vi": "Huỳnh Tấn Phát có tên trong các tuyến ngập do triều 20–25/10/2025.",
      "description_en": "Listed among tide-flooded streets, 20–25 Oct 2025.",
      "source": "https://tuoitre.vn/trieu-cuong-1-82m-gay-ngap-nhieu-noi-o-tp-hcm-so-xay-dung-neu-nguyen-nhan-va-giai-phap-ung-pho-20251030154940159.htm"
     }
    ],
    "sources": [
     "https://vnexpress.net/tra-cuu-159-diem-ngap-thuong-xuyen-tai-tp-hcm-5127780.html",
     "https://dantri.com.vn/thoi-su/tphcm-cong-bo-34-tuyen-duong-ngap-do-mua-va-trieu-cuong-20260625181340802.htm",
     "https://thanhnien.vn/danh-sach-23-tuyen-duong-bi-ngap-nuoc-do-trieu-cuong-o-tphcm-185251120195250754.htm",
     "https://tuoitre.vn/danh-sach-122-diem-ngap-do-mua-lon-trieu-cuong-tai-tphcm-100261007160246997.htm",
     "https://tuoitre.vn/trieu-cuong-1-82m-gay-ngap-nhieu-noi-o-tp-hcm-so-xay-dung-neu-nguyen-nhan-va-giai-phap-ung-pho-20251030154940159.htm",
     "https://www.sggp.org.vn/tphcm-trieu-cuong-dang-cao-nhieu-tuyen-duong-ngap-sau-post822156.html"
    ],
    "notes": "CSGT lists it under rain; Sở XD under tide → cause 'both'.",
    "last_verified": "2026-10-09"
   }
  },
  {
   "type": "Feature",
   "geometry": {
    "type": "LineString",
    "coordinates": [
     [
      106.73759,
      10.705198
     ],
     [
      106.728374,
      10.704047
     ],
     [
      106.726377,
      10.703291
     ]
    ]
   },
   "properties": {
    "id": "hcmc-0005",
    "name_vi": "Đường Phạm Hữu Lầu (đoạn Huỳnh Tấn Phát – cầu Phước Long)",
    "name_en": "Pham Huu Lau Street (Huynh Tan Phat – Phuoc Long Bridge section)",
    "street": "Phạm Hữu Lầu",
    "ward": "Phường Tân Mỹ",
    "legacy_district": "Quận 7",
    "cause": "tide",
    "depth_cm": {
     "min": 15,
     "max": 70
    },
    "frequency": "frequent",
    "status": "active",
    "past_events": [
     {
      "date": "2026-09-28",
      "cause": "tide",
      "description_vi": "Có đoạn ngập sát cửa nhà dân.",
      "description_en": "Water up to house doors in places.",
      "source": "https://vietnamnet.vn/duong-thanh-song-nha-thanh-diem-ngap-trong-ngay-trieu-cuong-o-tphcm-2559715.html"
     },
     {
      "date": "2025-11-06",
      "cause": "tide",
      "description_vi": "Tại giao lộ với đường 15B nước ngập quá đầu gối trong chưa đầy 30 phút; cả tuyến từ cầu Phước Long đến Huỳnh Tấn Phát ngập sâu.",
      "description_en": "Above knee height within 30 minutes at the 15B junction; the whole stretch flooded.",
      "source": "https://tuoitre.vn/trieu-cuong-vuot-bo-chan-thanh-da-lut-nua-xe-o-hiep-phuoc-20251106174156822.htm",
      "depth_cm": 70
     }
    ],
    "sources": [
     "https://vnexpress.net/tra-cuu-159-diem-ngap-thuong-xuyen-tai-tp-hcm-5127780.html",
     "https://dantri.com.vn/thoi-su/tphcm-cong-bo-34-tuyen-duong-ngap-do-mua-va-trieu-cuong-20260625181340802.htm",
     "https://thanhnien.vn/danh-sach-23-tuyen-duong-bi-ngap-nuoc-do-trieu-cuong-o-tphcm-185251120195250754.htm",
     "https://tuoitre.vn/danh-sach-122-diem-ngap-do-mua-lon-trieu-cuong-tai-tphcm-100261007160246997.htm",
     "https://tuoitre.vn/trieu-cuong-1-82m-gay-ngap-nhieu-noi-o-tp-hcm-so-xay-dung-neu-nguyen-nhan-va-giai-phap-ung-pho-20251030154940159.htm",
     "https://vietnamnet.vn/duong-thanh-song-nha-thanh-diem-ngap-trong-ngay-trieu-cuong-o-tphcm-2559715.html",
     "https://vtv.vn/trieu-cuong-tai-tp-ho-chi-minh-vuot-dinh-lich-su-nhieu-khu-vuc-ngap-trong-bien-nuoc-10025110707063616.htm",
     "https://tuoitre.vn/trieu-cuong-vuot-bo-chan-thanh-da-lut-nua-xe-o-hiep-phuoc-20251106174156822.htm"
    ],
    "notes": "Section from CSGT tide list (S08).",
    "last_verified": "2026-10-09"
   }
  },
  {
   "type": "Feature",
   "geometry": {
    "type": "LineString",
    "coordinates": [
     [
      106.622912,
      10.700225
     ],
     [
      106.621264,
      10.700952
     ],
     [
      106.619858,
      10.702001
     ],
     [
      106.619321,
      10.702632
     ],
     [
      106.619228,
      10.70289
     ]
    ]
   },
   "properties": {
    "id": "hcmc-0006",
    "name_vi": "Đường Rạch Cùng (đoạn ra bến phà Phú Định)",
    "name_en": "Rach Cung Street (towards Phu Dinh ferry landing)",
    "street": "Rạch Cùng",
    "ward": "Phường Bình Đông",
    "legacy_district": "Quận 8",
    "cause": "tide",
    "depth_cm": {
     "min": 30,
     "max": 50
    },
    "frequency": "frequent",
    "status": "active",
    "past_events": [
     {
      "date": "2026-09-28",
      "cause": "tide",
      "description_vi": "Ngập quá bánh xe, sâu khoảng 0,5 m.",
      "description_en": "Above the wheels, about 0.5 m deep.",
      "source": "https://vietnamnet.vn/duong-thanh-song-nha-thanh-diem-ngap-trong-ngay-trieu-cuong-o-tphcm-2559715.html",
      "depth_cm": 50
     },
     {
      "date": "2026-09-27",
      "cause": "tide",
      "description_vi": "Nhiều đoạn ngập sâu trên tuyến ra bến phà Phú Định.",
      "description_en": "Several deep stretches on the road to the Phu Dinh ferry.",
      "source": "https://thanhnien.vn/trieu-cuong-dang-cao-sang-nay-o-tphcm-nhieu-duong-ngap-truoc-ngay-dat-dinh-185260927073451873.htm"
     },
     {
      "date": "2025-11-20",
      "cause": "tide",
      "description_vi": "Đường Rạch Cùng (phường Bình Đông) bị ngập sâu.",
      "description_en": "Rach Cung deeply flooded.",
      "source": "https://tienphong.vn/trieu-cuong-tan-cong-khu-vuc-cho-lon-o-tphcm-post1798035.tpo"
     },
     {
      "date": "2025-10-23",
      "cause": "tide",
      "description_vi": "Nước gần ngang bánh xe máy, có chỗ đến đầu gối.",
      "description_en": "Water nearly to motorbike wheels, knee-deep in places.",
      "source": "https://news.tuoitre.vn/high-tides-turn-ho-chi-minh-city-streets-into-rivers-103251024104336635.htm",
      "depth_cm": 40
     }
    ],
    "sources": [
     "https://tuoitre.vn/trieu-cuong-dat-dinh-sang-dau-tuan-nguoi-dan-tphcm-di-duong-vong-hoc-sinh-xan-quan-di-hoc-1002609280705406.htm",
     "https://thanhnien.vn/trieu-cuong-dang-cao-sang-nay-o-tphcm-nhieu-duong-ngap-truoc-ngay-dat-dinh-185260927073451873.htm",
     "https://vietnamnet.vn/duong-thanh-song-nha-thanh-diem-ngap-trong-ngay-trieu-cuong-o-tphcm-2559715.html",
     "https://news.tuoitre.vn/high-tides-turn-ho-chi-minh-city-streets-into-rivers-103251024104336635.htm",
     "https://tienphong.vn/trieu-cuong-tan-cong-khu-vuc-cho-lon-o-tphcm-post1798035.tpo"
    ],
    "notes": "",
    "last_verified": "2026-10-09"
   }
  },
  {
   "type": "Feature",
   "geometry": {
    "type": "LineString",
    "coordinates": [
     [
      106.623347,
      10.70741
     ],
     [
      106.623011,
      10.706657
     ],
     [
      106.622599,
      10.705713
     ],
     [
      106.622119,
      10.704787
     ],
     [
      106.621745,
      10.703937
     ],
     [
      106.621628,
      10.703532
     ]
    ]
   },
   "properties": {
    "id": "hcmc-0007",
    "name_vi": "Đường Phạm Thế Hiển (đoạn gần Lê Bôi, phường Bình Đông)",
    "name_en": "Pham The Hien Street (near Le Boi, Binh Dong ward)",
    "street": "Phạm Thế Hiển",
    "ward": "Phường Bình Đông",
    "legacy_district": "Quận 8",
    "cause": "both",
    "depth_cm": {
     "min": 30,
     "max": 60
    },
    "frequency": "frequent",
    "status": "active",
    "past_events": [
     {
      "date": "2026-09-27",
      "cause": "tide",
      "description_vi": "Một đoạn đường Phạm Thế Hiển, phường Bình Đông ngập vì triều cường.",
      "description_en": "A stretch in Binh Dong ward flooded by the tide.",
      "source": "https://thanhnien.vn/trieu-cuong-dang-cao-sang-nay-o-tphcm-nhieu-duong-ngap-truoc-ngay-dat-dinh-185260927073451873.htm"
     },
     {
      "date": "2025-11-06",
      "cause": "tide",
      "description_vi": "Ngập 30–60 cm (mô tả chung nhóm tuyến).",
      "description_en": "30–60 cm (group description).",
      "source": "https://vtv.vn/trieu-cuong-tai-tp-ho-chi-minh-vuot-dinh-lich-su-nhieu-khu-vuc-ngap-trong-bien-nuoc-10025110707063616.htm",
      "depth_cm": 60
     },
     {
      "date": "2025-10-23",
      "cause": "tide",
      "description_vi": "Đường ngập nước do triều.",
      "description_en": "Street awash at high tide.",
      "source": "https://news.tuoitre.vn/high-tides-turn-ho-chi-minh-city-streets-into-rivers-103251024104336635.htm"
     }
    ],
    "sources": [
     "https://tuoitre.vn/danh-sach-122-diem-ngap-do-mua-lon-trieu-cuong-tai-tphcm-100261007160246997.htm",
     "https://tuoitre.vn/trieu-cuong-1-82m-gay-ngap-nhieu-noi-o-tp-hcm-so-xay-dung-neu-nguyen-nhan-va-giai-phap-ung-pho-20251030154940159.htm",
     "https://thanhnien.vn/trieu-cuong-dang-cao-sang-nay-o-tphcm-nhieu-duong-ngap-truoc-ngay-dat-dinh-185260927073451873.htm",
     "https://news.tuoitre.vn/high-tides-turn-ho-chi-minh-city-streets-into-rivers-103251024104336635.htm",
     "https://vtv.vn/trieu-cuong-tai-tp-ho-chi-minh-vuot-dinh-lich-su-nhieu-khu-vuc-ngap-trong-bien-nuoc-10025110707063616.htm"
    ],
    "notes": "",
    "last_verified": "2026-10-09"
   }
  },
  {
   "type": "Feature",
   "geometry": {
    "type": "LineString",
    "coordinates": [
     [
      106.626743,
      10.82783
     ],
     [
      106.626831,
      10.828795
     ],
     [
      106.626949,
      10.82941
     ],
     [
      106.628151,
      10.833135
     ],
     [
      106.628781,
      10.835277
     ],
     [
      106.629956,
      10.839724
     ],
     [
      106.630202,
      10.840957
     ],
     [
      106.631324,
      10.84374
     ],
     [
      106.633466,
      10.846123
     ],
     [
      106.635021,
      10.847368
     ],
     [
      106.635563,
      10.848155
     ],
     [
      106.636153,
      10.8491
     ],
     [
      106.637539,
      10.851577
     ],
     [
      106.63785,
      10.852312
     ],
     [
      106.638502,
      10.854256
     ],
     [
      106.639405,
      10.856319
     ],
     [
      106.639413,
      10.856475
     ]
    ]
   },
   "properties": {
    "id": "hcmc-0008",
    "name_vi": "Đường Nguyễn Văn Quá",
    "name_en": "Nguyen Van Qua Street",
    "street": "Nguyễn Văn Quá",
    "ward": "Phường Đông Hưng Thuận",
    "legacy_district": "Quận 12",
    "cause": "rain",
    "depth_cm": {
     "min": 10,
     "max": 50
    },
    "frequency": "frequent",
    "status": "active",
    "past_events": [
     {
      "date": "2026-09-30",
      "cause": "rain",
      "description_vi": "Có tên trong 12 tuyến ngập tối 30/9.",
      "description_en": "Listed among 12 flooded streets on 30 Sep.",
      "source": "https://tienphong.vn/12-tuyen-duong-o-tphcm-ngap-sau-mua-lon-co-noi-ngap-hon-1-met-post1881279.tpo"
     },
     {
      "date": "2025-10-03",
      "cause": "rain",
      "description_vi": "Ngập sâu, có đoạn đến nửa mét (mô tả chung nhiều tuyến).",
      "description_en": "Deep, up to half a metre in places (group description).",
      "source": "https://tuoitre.vn/nld/can-canh-ngap-nguoi-dan-di-lai-chat-vat-trong-tran-mua-ngay-3-10-196251003160551855.htm",
      "depth_cm": 50
     },
     {
      "date": "2024-10-20",
      "cause": "rain",
      "description_vi": "Ngập lên tới đầu gối dù đã nâng đường (dự án hơn 160 tỷ).",
      "description_en": "Knee-deep despite the raised road (160-billion project).",
      "source": "https://vovgiaothong.vn/newsaudio/ngon-hon-160-ty-dong-duong-nguyen-van-qua-van-thanh-song-d41623.html",
      "depth_cm": 50
     }
    ],
    "sources": [
     "https://vnexpress.net/tra-cuu-159-diem-ngap-thuong-xuyen-tai-tp-hcm-5127780.html",
     "https://dantri.com.vn/thoi-su/tphcm-cong-bo-34-tuyen-duong-ngap-do-mua-va-trieu-cuong-20260625181340802.htm",
     "https://tuoitre.vn/9-thang-dau-nam-toan-tp-hcm-co-30-tuyen-duong-ngap-khi-mua-20241015175215262.htm",
     "https://tuoitre.vn/tphcm-se-ra-soat-xu-ly-diem-ngap-nao-thu-tu-uu-tien-ra-sao-100261003170822626.htm",
     "https://tienphong.vn/12-tuyen-duong-o-tphcm-ngap-sau-mua-lon-co-noi-ngap-hon-1-met-post1881279.tpo",
     "https://vovgiaothong.vn/newsaudio/ngon-hon-160-ty-dong-duong-nguyen-van-qua-van-thanh-song-d41623.html",
     "https://tuoitre.vn/nld/can-canh-ngap-nguoi-dan-di-lai-chat-vat-trong-tran-mua-ngay-3-10-196251003160551855.htm",
     "https://tuoitre.vn/giaoduc/vi-sao-duong-nguyen-van-qua-quan-12-duoc-lap-cong-hop-chong-ngap-nhung-van-bi-ngap-108883523.htm"
    ],
    "notes": "2024-10-20 event year inferred from article date (2024-11-01).",
    "last_verified": "2026-10-09"
   }
  },
  {
   "type": "Feature",
   "geometry": {
    "type": "LineString",
    "coordinates": [
     [
      106.716367,
      10.807628
     ],
     [
      106.719355,
      10.80683
     ],
     [
      106.719825,
      10.806565
     ],
     [
      106.720692,
      10.805808
     ],
     [
      106.720932,
      10.805503
     ],
     [
      106.7212,
      10.804989
     ],
     [
      106.721703,
      10.8037
     ],
     [
      106.723454,
      10.800664
     ],
     [
      106.723578,
      10.800285
     ],
     [
      106.723682,
      10.799145
     ]
    ]
   },
   "properties": {
    "id": "hcmc-0009",
    "name_vi": "Đường Ung Văn Khiêm (đoạn Nguyễn Gia Trí – Điện Biên Phủ)",
    "name_en": "Ung Van Khiem Street (Nguyen Gia Tri – Dien Bien Phu section)",
    "street": "Ung Văn Khiêm",
    "ward": "Phường Thạnh Mỹ Tây",
    "legacy_district": "Bình Thạnh",
    "cause": "rain",
    "depth_cm": {
     "min": 10,
     "max": 50
    },
    "frequency": "frequent",
    "status": "active",
    "past_events": [
     {
      "date": "2026-10-07",
      "cause": "rain",
      "description_vi": "Mực nước cao hơn nửa mét; đoạn Xô Viết Nghệ Tĩnh – Điện Biên Phủ ngập từ khoảng 19h.",
      "description_en": "Water more than half a metre deep; the Xo Viet Nghe Tinh – Dien Bien Phu stretch flooded from about 7 pm.",
      "source": "https://dantri.com.vn/thoi-su/mua-xoi-xa-nguoi-dan-tphcm-nhich-tung-chut-tren-duong-ve-nha-20261007193731725.htm",
      "depth_cm": 50
     },
     {
      "date": "2026-09-22",
      "cause": "rain",
      "description_vi": "Đường Ung Văn Khiêm ngập nước khá nghiêm trọng giờ tan tầm.",
      "description_en": "Fairly serious flooding at rush hour.",
      "source": "https://thanhnien.vn/nuoc-chay-cuon-cuon-giao-thong-hon-loan-trong-mua-lon-o-tphcm-gio-tan-tam-185260922191425244.htm"
     }
    ],
    "sources": [
     "https://vnexpress.net/tra-cuu-159-diem-ngap-thuong-xuyen-tai-tp-hcm-5127780.html",
     "https://dantri.com.vn/thoi-su/tphcm-cong-bo-34-tuyen-duong-ngap-do-mua-va-trieu-cuong-20260625181340802.htm",
     "https://tuoitre.vn/9-thang-dau-nam-toan-tp-hcm-co-30-tuyen-duong-ngap-khi-mua-20241015175215262.htm",
     "https://tuoitre.vn/danh-sach-122-diem-ngap-do-mua-lon-trieu-cuong-tai-tphcm-100261007160246997.htm",
     "https://dantri.com.vn/thoi-su/mua-xoi-xa-nguoi-dan-tphcm-nhich-tung-chut-tren-duong-ve-nha-20261007193731725.htm",
     "https://thanhnien.vn/mua-lon-gio-cao-diem-o-tphcm-di-mot-doan-lai-dung-den-do-ngam-chan-giua-nuoc-ngap-185261007205919586.htm",
     "https://thanhnien.vn/nuoc-chay-cuon-cuon-giao-thong-hon-loan-trong-mua-lon-o-tphcm-gio-tan-tam-185260922191425244.htm"
    ],
    "notes": "Section from CSGT list (S08).",
    "last_verified": "2026-10-09"
   }
  },
  {
   "type": "Feature",
   "geometry": {
    "type": "LineString",
    "coordinates": [
     [
      106.744135,
      10.833568
     ],
     [
      106.7417,
      10.830394
     ],
     [
      106.740672,
      10.830019
     ],
     [
      106.739242,
      10.829391
     ],
     [
      106.738376,
      10.828851
     ],
     [
      106.737933,
      10.828479
     ],
     [
      106.735605,
      10.826108
     ],
     [
      106.734874,
      10.825456
     ],
     [
      106.732947,
      10.824038
     ],
     [
      106.730855,
      10.82266
     ],
     [
      106.724812,
      10.819293
     ],
     [
      106.720108,
      10.816849
     ],
     [
      106.71975,
      10.816616
     ],
     [
      106.719386,
      10.816305
     ],
     [
      106.719387,
      10.816222
     ],
     [
      106.719083,
      10.815853
     ],
     [
      106.719096,
      10.815795
     ],
     [
      106.71843,
      10.814976
     ],
     [
      106.718035,
      10.814611
     ]
    ]
   },
   "properties": {
    "id": "hcmc-0010",
    "name_vi": "Đường Bình Quới (bán đảo Thanh Đa)",
    "name_en": "Binh Quoi Street (Thanh Da peninsula)",
    "street": "Bình Quới",
    "ward": "Phường Bình Quới",
    "legacy_district": "Bình Thạnh",
    "cause": "both",
    "depth_cm": {
     "min": 15,
     "max": 30
    },
    "frequency": "frequent",
    "status": "active",
    "past_events": [
     {
      "date": "2026-09-30",
      "cause": "both",
      "description_vi": "Nhiều đoạn đường Bình Quới (phường Bình Quới) ngập khá sâu khi mưa lớn kết hợp triều cường.",
      "description_en": "Several stretches fairly deep in rain plus high tide.",
      "source": "https://www.vietnamplus.vn/thanh-pho-ho-chi-minh-mua-lon-ket-hop-trieu-cuong-khien-nhieu-khu-vuc-ngap-sau-post1139295.vnp"
     },
     {
      "date": "2026-09-28",
      "cause": "tide",
      "description_vi": "Một số đoạn đường Bình Quới ngập do triều.",
      "description_en": "Some stretches of Binh Quoi Street flooded at high tide.",
      "source": "https://tuoitre.vn/trieu-cuong-dat-dinh-sang-dau-tuan-nguoi-dan-tphcm-di-duong-vong-hoc-sinh-xan-quan-di-hoc-1002609280705406.htm"
     },
     {
      "date": "2025-11-06",
      "cause": "tide",
      "description_vi": "Triều cường vượt bờ chắn Thanh Đa; có nơi ngập nửa bánh xe.",
      "description_en": "Tide overtopped the Thanh Da wall; half a wheel deep in places.",
      "source": "https://www.sggp.org.vn/tphcm-trieu-cuong-dang-cao-nhieu-tuyen-duong-ngap-sau-post822156.html"
     },
     {
      "date": "2025-11-05",
      "cause": "tide",
      "description_vi": "Đường Bình Quới vào khu dân cư Thanh Đa ngập sâu khiến xe chết máy hàng loạt.",
      "description_en": "Deep tidal flooding; many motorbikes stalled.",
      "source": "https://vietnamnet.vn/trieu-cuong-chua-dat-dinh-nhieu-noi-tphcm-da-menh-mong-nuoc-2459742.html"
     },
     {
      "date": "2025-10-24",
      "cause": "tide",
      "description_vi": "Triều cường vượt đỉnh, sạt kè tại KDL Bình Quới 2; nhiều hẻm xung quanh ngập đến trưa hôm sau.",
      "description_en": "Record tide broke the embankment at Binh Quoi 2 resort; nearby alleys flooded until next noon.",
      "source": "https://tienphong.vn/tphcm-cuoc-song-nguoi-dan-thanh-da-dao-lon-vi-mua-lon-va-trieu-cuong-post1790413.tpo"
     }
    ],
    "sources": [
     "https://vnexpress.net/tra-cuu-159-diem-ngap-thuong-xuyen-tai-tp-hcm-5127780.html",
     "https://thanhnien.vn/danh-sach-23-tuyen-duong-bi-ngap-nuoc-do-trieu-cuong-o-tphcm-185251120195250754.htm",
     "https://tuoitre.vn/9-thang-dau-nam-toan-tp-hcm-co-30-tuyen-duong-ngap-khi-mua-20241015175215262.htm",
     "https://tuoitre.vn/nhung-diem-ngap-nao-o-tphcm-duoc-dua-vao-ke-hoach-giai-quyet-ngap-nam-2026-100260911182314895.htm",
     "https://tuoitre.vn/tphcm-se-ra-soat-xu-ly-diem-ngap-nao-thu-tu-uu-tien-ra-sao-100261003170822626.htm",
     "https://tuoitre.vn/trieu-cuong-1-82m-gay-ngap-nhieu-noi-o-tp-hcm-so-xay-dung-neu-nguyen-nhan-va-giai-phap-ung-pho-20251030154940159.htm",
     "https://tuoitre.vn/trieu-cuong-vuot-bo-chan-thanh-da-lut-nua-xe-o-hiep-phuoc-20251106174156822.htm",
     "https://www.sggp.org.vn/tphcm-trieu-cuong-dang-cao-nhieu-tuyen-duong-ngap-sau-post822156.html",
     "https://tuoitre.vn/trieu-cuong-dat-dinh-sang-dau-tuan-nguoi-dan-tphcm-di-duong-vong-hoc-sinh-xan-quan-di-hoc-1002609280705406.htm",
     "https://www.vietnamplus.vn/thanh-pho-ho-chi-minh-mua-lon-ket-hop-trieu-cuong-khien-nhieu-khu-vuc-ngap-sau-post1139295.vnp",
     "https://vietnamnet.vn/trieu-cuong-chua-dat-dinh-nhieu-noi-tphcm-da-menh-mong-nuoc-2459742.html",
     "https://thanhnien.vn/tphcm-uu-tien-xoa-3-diem-ngap-nang-47-diem-con-lai-ra-sao-185260910183201705.htm",
     "https://tienphong.vn/tphcm-cuoc-song-nguoi-dan-thanh-da-dao-lon-vi-mua-lon-va-trieu-cuong-post1790413.tpo"
    ],
    "notes": "Thanh Đa residential areas reported 40–100 cm (S11), but that is homes, not the street.",
    "last_verified": "2026-10-09"
   }
  },
  {
   "type": "Feature",
   "geometry": {
    "type": "LineString",
    "coordinates": [
     [
      106.700251,
      10.833943
     ],
     [
      106.702297,
      10.830677
     ],
     [
      106.702824,
      10.829364
     ],
     [
      106.703103,
      10.827568
     ],
     [
      106.703326,
      10.824993
     ],
     [
      106.703322,
      10.824377
     ],
     [
      106.703178,
      10.823179
     ]
    ]
   },
   "properties": {
    "id": "hcmc-0011",
    "name_vi": "Đường Đặng Thùy Trâm",
    "name_en": "Dang Thuy Tram Street",
    "street": "Đặng Thùy Trâm",
    "ward": "Phường Bình Lợi Trung",
    "legacy_district": "Bình Thạnh",
    "cause": "both",
    "depth_cm": {
     "min": 30,
     "max": 40
    },
    "frequency": "frequent",
    "status": "active",
    "past_events": [
     {
      "date": "2026-10-07",
      "cause": "rain",
      "description_vi": "Các hẻm thông với đường bị ngập sâu.",
      "description_en": "Connecting alleys deeply flooded.",
      "source": "https://thanhnien.vn/mua-lon-gio-cao-diem-o-tphcm-di-mot-doan-lai-dung-den-do-ngam-chan-giua-nuoc-ngap-185261007205919586.htm"
     },
     {
      "date": "2026-09-28",
      "cause": "tide",
      "description_vi": "Triều cường gây ngập tại mặt hẻm trên đường Đặng Thùy Trâm.",
      "description_en": "High tide flooded the alleys off the street.",
      "source": "https://tuoitre.vn/trieu-cuong-dat-dinh-sang-dau-tuan-nguoi-dan-tphcm-di-duong-vong-hoc-sinh-xan-quan-di-hoc-1002609280705406.htm"
     },
     {
      "date": "2026-06-11",
      "cause": "rain",
      "description_vi": "Gần như toàn tuyến ngập sau mưa; nhiều đoạn ngập, hố hào thi công bị nước che khuất.",
      "description_en": "Nearly the whole street flooded after rain; trenches hidden under water.",
      "source": "https://tuoitre.vn/duong-dang-thuy-tram-ngap-tu-phia-ho-hao-cong-trinh-thanh-bay-sau-mua-20260611211343799.htm"
     },
     {
      "date": "2025-11-06",
      "cause": "tide",
      "description_vi": "Người dân phải chịu cảnh ngập như cơm bữa.",
      "description_en": "Residents say it floods all the time.",
      "source": "https://dantri.com.vn/thoi-su/tphcm-ngap-nhu-mien-tay-mua-nuoc-noi-trong-ngay-trieu-cuong-dat-dinh-20251106185205927.htm"
     },
     {
      "date": "2025-05-10",
      "cause": "rain",
      "description_vi": "Đoạn dài hơn 1 km, nước sâu gần lút bánh xe máy.",
      "description_en": "A stretch over 1 km long, water nearly covering motorbike wheels.",
      "source": "https://dantri.com.vn/thoi-su/mua-lon-tren-150mm-tu-sang-o-tphcm-nhieu-tuyen-duong-ngap-nang-20250510075728453.htm",
      "depth_cm": 40
     }
    ],
    "sources": [
     "https://tuoitre.vn/danh-sach-122-diem-ngap-do-mua-lon-trieu-cuong-tai-tphcm-100261007160246997.htm",
     "https://dantri.com.vn/thoi-su/mua-lon-tren-150mm-tu-sang-o-tphcm-nhieu-tuyen-duong-ngap-nang-20250510075728453.htm",
     "https://dantri.com.vn/thoi-su/tphcm-ngap-nhu-mien-tay-mua-nuoc-noi-trong-ngay-trieu-cuong-dat-dinh-20251106185205927.htm",
     "https://tuoitre.vn/trieu-cuong-dat-dinh-sang-dau-tuan-nguoi-dan-tphcm-di-duong-vong-hoc-sinh-xan-quan-di-hoc-1002609280705406.htm",
     "https://thanhnien.vn/mua-lon-gio-cao-diem-o-tphcm-di-mot-doan-lai-dung-den-do-ngam-chan-giua-nuoc-ngap-185261007205919586.htm",
     "https://tuoitre.vn/duong-dang-thuy-tram-ngap-tu-phia-ho-hao-cong-trinh-thanh-bay-sau-mua-20260611211343799.htm"
    ],
    "notes": "",
    "last_verified": "2026-10-09"
   }
  },
  {
   "type": "Feature",
   "geometry": {
    "type": "LineString",
    "coordinates": [
     [
      106.657161,
      10.842594
     ],
     [
      106.656853,
      10.842539
     ],
     [
      106.654651,
      10.842565
     ]
    ]
   },
   "properties": {
    "id": "hcmc-0012",
    "name_vi": "Đường Nguyễn Văn Khối (đoạn Lê Văn Thọ – UBND phường Thông Tây Hội)",
    "name_en": "Nguyen Van Khoi Street (Le Van Tho – Thong Tay Hoi ward office section)",
    "street": "Nguyễn Văn Khối",
    "ward": "Phường Thông Tây Hội",
    "legacy_district": "Gò Vấp",
    "cause": "rain",
    "depth_cm": {
     "min": 30,
     "max": 70
    },
    "frequency": "frequent",
    "status": "active",
    "past_events": [
     {
      "date": "2026-10-08",
      "cause": "rain",
      "description_vi": "Mưa cả đêm, sáng 8/10 nước ngập hơn nửa bánh xe.",
      "description_en": "After overnight rain, water above half a wheel on the morning of 8 Oct.",
      "source": "https://tuoitre.vn/mua-ca-dem-sang-nay-duong-nguyen-van-khoi-tphcm-nuoc-ngap-menh-mong-10026100808374636.htm",
      "depth_cm": 30
     },
     {
      "date": "2026-10-07",
      "cause": "rain",
      "description_vi": "Có đoạn nước dâng sát yên xe máy; đoạn 300 m ngập hơn nửa mét suốt 2 tiếng.",
      "description_en": "Up to the motorbike seat in places; 300 m above half a metre for 2 hours.",
      "source": "https://thanhnien.vn/nhieu-duong-o-tphcm-ngap-nang-toi-nay-co-noi-nuoc-dang-sat-yen-xe-may-18526100718053186.htm",
      "depth_cm": 70
     },
     {
      "date": "2026-09-30",
      "cause": "rain",
      "description_vi": "Có tên trong 12 tuyến ngập sau mưa lớn tối 30/9.",
      "description_en": "Listed among 12 streets flooded on the evening of 30 Sep.",
      "source": "https://tienphong.vn/12-tuyen-duong-o-tphcm-ngap-sau-mua-lon-co-noi-ngap-hon-1-met-post1881279.tpo"
     },
     {
      "date": "2026-09-25",
      "cause": "rain",
      "description_vi": "Ngã tư Nguyễn Văn Khối – Lê Văn Thọ ngập sâu.",
      "description_en": "Deep flooding at the Le Van Tho junction.",
      "source": "https://tuoitre.vn/nga-tu-nguyen-van-khoi-le-van-tho-o-tphcm-bi-ngap-hoc-sinh-dat-xe-loi-nuoc-ve-nha-100260925175324604.htm"
     }
    ],
    "sources": [
     "https://vnexpress.net/tra-cuu-159-diem-ngap-thuong-xuyen-tai-tp-hcm-5127780.html",
     "https://tuoitre.vn/9-thang-dau-nam-toan-tp-hcm-co-30-tuyen-duong-ngap-khi-mua-20241015175215262.htm",
     "https://tuoitre.vn/danh-sach-122-diem-ngap-do-mua-lon-trieu-cuong-tai-tphcm-100261007160246997.htm",
     "https://thanhnien.vn/nhung-tuyen-duong-nao-o-tphcm-he-mua-lon-la-ngap-185261004175107092.htm",
     "https://thanhnien.vn/duong-nguyen-van-khoi-thanh-song-sau-mua-lon-song-xo-nga-nguoi-di-duong-185261007202658218.htm",
     "https://tienphong.vn/12-tuyen-duong-o-tphcm-ngap-sau-mua-lon-co-noi-ngap-hon-1-met-post1881279.tpo",
     "https://tuoitre.vn/mua-ca-dem-sang-nay-duong-nguyen-van-khoi-tphcm-nuoc-ngap-menh-mong-10026100808374636.htm",
     "https://tuoitre.vn/nga-tu-nguyen-van-khoi-le-van-tho-o-tphcm-bi-ngap-hoc-sinh-dat-xe-loi-nuoc-ve-nha-100260925175324604.htm",
     "https://thanhnien.vn/nhieu-duong-o-tphcm-ngap-nang-toi-nay-co-noi-nuoc-dang-sat-yen-xe-may-18526100718053186.htm",
     "https://thanhnien.vn/tphcm-len-ke-hoach-giai-quyet-50-diem-ngap-nang-185261004224119279.htm"
    ],
    "notes": "Section from CSGT list (S08); end point = UBND phường Thông Tây Hội, 175 Nguyễn Văn Khối.",
    "last_verified": "2026-10-09"
   }
  },
  {
   "type": "Feature",
   "geometry": {
    "type": "LineString",
    "coordinates": [
     [
      106.640162,
      10.844347
     ],
     [
      106.651045,
      10.849611
     ],
     [
      106.656128,
      10.851428
     ],
     [
      106.656631,
      10.85146
     ],
     [
      106.657475,
      10.851379
     ],
     [
      106.665484,
      10.854175
     ]
    ]
   },
   "properties": {
    "id": "hcmc-0013",
    "name_vi": "Đường Phạm Văn Chiêu",
    "name_en": "Pham Van Chieu Street",
    "street": "Phạm Văn Chiêu",
    "ward": "Phường An Hội Đông",
    "legacy_district": "Gò Vấp",
    "cause": "rain",
    "depth_cm": {
     "min": 10,
     "max": 50
    },
    "frequency": "frequent",
    "status": "active",
    "past_events": [
     {
      "date": "2026-09-30",
      "cause": "rain",
      "description_vi": "Có tên trong 12 tuyến ngập tối 30/9.",
      "description_en": "Listed among 12 flooded streets on 30 Sep.",
      "source": "https://tienphong.vn/12-tuyen-duong-o-tphcm-ngap-sau-mua-lon-co-noi-ngap-hon-1-met-post1881279.tpo"
     },
     {
      "date": "2025-10-03",
      "cause": "rain",
      "description_vi": "Ngập sâu, có đoạn đến nửa mét (mô tả chung nhiều tuyến).",
      "description_en": "Deep, up to half a metre in places (group).",
      "source": "https://tuoitre.vn/nld/can-canh-ngap-nguoi-dan-di-lai-chat-vat-trong-tran-mua-ngay-3-10-196251003160551855.htm",
      "depth_cm": 50
     },
     {
      "date": "2025-05-10",
      "cause": "rain",
      "description_vi": "Ngập cục bộ sau mưa trên 150 mm.",
      "description_en": "Local flooding after 150 mm+ rain.",
      "source": "https://dantri.com.vn/thoi-su/mua-lon-tren-150mm-tu-sang-o-tphcm-nhieu-tuyen-duong-ngap-nang-20250510075728453.htm"
     }
    ],
    "sources": [
     "https://vnexpress.net/tra-cuu-159-diem-ngap-thuong-xuyen-tai-tp-hcm-5127780.html",
     "https://dantri.com.vn/thoi-su/tphcm-cong-bo-34-tuyen-duong-ngap-do-mua-va-trieu-cuong-20260625181340802.htm",
     "https://tuoitre.vn/9-thang-dau-nam-toan-tp-hcm-co-30-tuyen-duong-ngap-khi-mua-20241015175215262.htm",
     "https://tienphong.vn/12-tuyen-duong-o-tphcm-ngap-sau-mua-lon-co-noi-ngap-hon-1-met-post1881279.tpo",
     "https://tuoitre.vn/nld/can-canh-ngap-nguoi-dan-di-lai-chat-vat-trong-tran-mua-ngay-3-10-196251003160551855.htm",
     "https://dantri.com.vn/thoi-su/mua-lon-tren-150mm-tu-sang-o-tphcm-nhieu-tuyen-duong-ngap-nang-20250510075728453.htm",
     "https://thanhnien.vn/tphcm-ron-ngap-go-vap-cu-den-nam-2027-moi-mong-het-ngap-185251113183232065.htm"
    ],
    "notes": "",
    "last_verified": "2026-10-09"
   }
  },
  {
   "type": "Feature",
   "geometry": {
    "type": "LineString",
    "coordinates": [
     [
      106.629765,
      10.823486
     ],
     [
      106.629903,
      10.823648
     ],
     [
      106.633969,
      10.83233
     ]
    ]
   },
   "properties": {
    "id": "hcmc-0014",
    "name_vi": "Đường Phan Huy Ích (đoạn Trường Chinh – Huỳnh Văn Nghệ)",
    "name_en": "Phan Huy Ich Street (Truong Chinh – Huynh Van Nghe section)",
    "street": "Phan Huy Ích",
    "ward": "Phường Tân Sơn",
    "legacy_district": "Tân Bình",
    "cause": "rain",
    "depth_cm": {
     "min": 10,
     "max": 100
    },
    "frequency": "frequent",
    "status": "active",
    "past_events": [
     {
      "date": "2026-10-04",
      "cause": "rain",
      "description_vi": "Ngập sâu lần thứ 4 trong 10 ngày; nước cao hơn nửa thân người lớn.",
      "description_en": "Fourth deep flood in 10 days; water above an adult's waist.",
      "source": "https://tienphong.vn/canh-bao-ho-sau-nguy-hiem-tai-con-duong-ngap-nang-nhat-o-tphcm-post1882138.tpo"
     },
     {
      "date": "2026-09-30",
      "cause": "rain",
      "description_vi": "Ngập nặng nhất nhiều năm, có nơi hơn 1 mét, xe buýt chết máy.",
      "description_en": "Worst in years, over 1 m in places, buses stalled.",
      "source": "https://tuoitre.vn/duong-phan-huy-ich-ngap-nang-ky-luc-nuoc-tran-vao-khien-xe-buyt-chet-may-la-liet-10026093021260881.htm",
      "depth_cm": 100
     },
     {
      "date": "2025-10-03",
      "cause": "rain",
      "description_vi": "Đoạn gần 1 km ngập, có đoạn nước qua khỏi bánh xe (quận Tân Bình cũ).",
      "description_en": "Nearly 1 km flooded, above the wheels in places (former Tan Binh).",
      "source": "https://tuoitre.vn/mua-lon-gay-ngap-sau-o-tp-hcm-xe-chet-may-hang-loat-20251003152251329.htm",
      "depth_cm": 40
     }
    ],
    "sources": [
     "https://vnexpress.net/tra-cuu-159-diem-ngap-thuong-xuyen-tai-tp-hcm-5127780.html",
     "https://dantri.com.vn/thoi-su/tphcm-cong-bo-34-tuyen-duong-ngap-do-mua-va-trieu-cuong-20260625181340802.htm",
     "https://tuoitre.vn/9-thang-dau-nam-toan-tp-hcm-co-30-tuyen-duong-ngap-khi-mua-20241015175215262.htm",
     "https://tuoitre.vn/mua-lon-gay-ngap-sau-o-tp-hcm-xe-chet-may-hang-loat-20251003152251329.htm",
     "https://tuoitre.vn/duong-phan-huy-ich-ngap-nang-ky-luc-nuoc-tran-vao-khien-xe-buyt-chet-may-la-liet-10026093021260881.htm",
     "https://tienphong.vn/12-tuyen-duong-o-tphcm-ngap-sau-mua-lon-co-noi-ngap-hon-1-met-post1881279.tpo",
     "https://tienphong.vn/canh-bao-ho-sau-nguy-hiem-tai-con-duong-ngap-nang-nhat-o-tphcm-post1882138.tpo",
     "https://thanhnien.vn/tphcm-len-ke-hoach-giai-quyet-50-diem-ngap-nang-185261004224119279.htm",
     "https://thanhnien.vn/duong-phan-huy-ich-o-tphcm-ngap-toi-1-met-nguoi-dan-loi-nuoc-ve-nha-trong-dem-185260930225838773.htm",
     "https://thanhnien.vn/bao-gio-duong-phan-huy-ich-khu-thao-dien-het-ngap-so-xay-dung-tphcm-tra-loi-185261008164938974.htm",
     "https://tuoitre.vn/giaoduc/vi-sao-duong-nguyen-van-qua-quan-12-duoc-lap-cong-hop-chong-ngap-nhung-van-bi-ngap-108883523.htm"
    ],
    "notes": "2025-10-03 depth: 'qua khỏi bánh xe' mapped to 40 (top of the 30–40 class).",
    "last_verified": "2026-10-09"
   }
  },
  {
   "type": "Feature",
   "geometry": {
    "type": "Point",
    "coordinates": [
     106.611274,
     10.722156
    ]
   },
   "properties": {
    "id": "hcmc-0015",
    "name_vi": "Giao lộ Võ Văn Kiệt – Hồ Học Lãm",
    "name_en": "Vo Van Kiet – Ho Hoc Lam intersection",
    "street": "Võ Văn Kiệt; Hồ Học Lãm",
    "ward": "Phường An Lạc",
    "legacy_district": "Bình Tân",
    "cause": "rain",
    "depth_cm": {
     "min": 10,
     "max": 30
    },
    "frequency": "frequent",
    "status": "active",
    "past_events": [
     {
      "date": "2026-09-30",
      "cause": "rain",
      "description_vi": "Hồ Học Lãm có tên trong 12 tuyến ngập tối 30/9.",
      "description_en": "Ho Hoc Lam listed among 12 flooded streets on 30 Sep.",
      "source": "https://tienphong.vn/12-tuyen-duong-o-tphcm-ngap-sau-mua-lon-co-noi-ngap-hon-1-met-post1881279.tpo"
     },
     {
      "date": "2025-10-23",
      "cause": "both",
      "description_vi": "Sở Xây dựng ghi nhận ngập tại giao lộ Võ Văn Kiệt – Hồ Học Lãm (đợt 20–25/10/2025).",
      "description_en": "Construction Dept recorded flooding at the intersection (20–25 Oct 2025).",
      "source": "https://tuoitre.vn/trieu-cuong-1-82m-gay-ngap-nhieu-noi-o-tp-hcm-so-xay-dung-neu-nguyen-nhan-va-giai-phap-ung-pho-20251030154940159.htm"
     }
    ],
    "sources": [
     "https://vnexpress.net/tra-cuu-159-diem-ngap-thuong-xuyen-tai-tp-hcm-5127780.html",
     "https://dantri.com.vn/thoi-su/tphcm-cong-bo-34-tuyen-duong-ngap-do-mua-va-trieu-cuong-20260625181340802.htm",
     "https://tuoitre.vn/9-thang-dau-nam-toan-tp-hcm-co-30-tuyen-duong-ngap-khi-mua-20241015175215262.htm",
     "https://tuoitre.vn/trieu-cuong-1-82m-gay-ngap-nhieu-noi-o-tp-hcm-so-xay-dung-neu-nguyen-nhan-va-giai-phap-ung-pho-20251030154940159.htm",
     "https://tienphong.vn/12-tuyen-duong-o-tphcm-ngap-sau-mua-lon-co-noi-ngap-hon-1-met-post1881279.tpo",
     "https://tuoitre.vn/vi-sao-mua-20-phut-nhieu-duong-o-quan-binh-tan-ngap-nhu-ao-ca-20240926124434423.htm"
    ],
    "notes": "",
    "last_verified": "2026-10-09"
   }
  },
  {
   "type": "Feature",
   "geometry": {
    "type": "LineString",
    "coordinates": [
     [
      106.603683,
      10.766344
     ],
     [
      106.603494,
      10.767445
     ],
     [
      106.602895,
      10.768924
     ],
     [
      106.601041,
      10.7758
     ]
    ]
   },
   "properties": {
    "id": "hcmc-0016",
    "name_vi": "Đường Mã Lò (đoạn qua phường Bình Trị Đông, từ Hương lộ 2)",
    "name_en": "Ma Lo Street (Binh Tri Dong ward section, from Huong Lo 2)",
    "street": "Mã Lò",
    "ward": "Phường Bình Trị Đông",
    "legacy_district": "Bình Tân",
    "cause": "rain",
    "depth_cm": {
     "min": 60,
     "max": 60
    },
    "frequency": "frequent",
    "status": "active",
    "past_events": [
     {
      "date": "2026-10-04",
      "cause": "rain",
      "description_vi": "Nước có thời điểm dâng khoảng 0,6 m.",
      "description_en": "Water rose to about 0.6 m at times.",
      "source": "https://vietnamnet.vn/tphcm-ngap-nang-sau-mua-lon-loat-phuong-tien-chet-may-nuoc-tran-vao-ca-xe-buyt-2561597.html",
      "depth_cm": 60
     },
     {
      "date": "2026-09-26",
      "cause": "rain",
      "description_vi": "Ngập sâu.",
      "description_en": "Deep flooding.",
      "source": "https://thanhnien.vn/nhung-tuyen-duong-nao-o-tphcm-he-mua-lon-la-ngap-185261004175107092.htm"
     },
     {
      "date": "2026-09-25",
      "cause": "rain",
      "description_vi": "Đường Mã Lò lại thành 'sông', nhiều xe chết máy.",
      "description_en": "Ma Lo turned into a 'river' again; many bikes stalled.",
      "source": "https://thanhnien.vn/mua-lon-o-tphcm-duong-ma-lo-lai-thanh-song-nhieu-xe-chet-may-185260925211655974.htm"
     },
     {
      "date": "2026-09-19",
      "cause": "rain",
      "description_vi": "Ngập sâu.",
      "description_en": "Deep flooding.",
      "source": "https://thanhnien.vn/nhung-tuyen-duong-nao-o-tphcm-he-mua-lon-la-ngap-185261004175107092.htm"
     }
    ],
    "sources": [
     "https://tuoitre.vn/danh-sach-122-diem-ngap-do-mua-lon-trieu-cuong-tai-tphcm-100261007160246997.htm",
     "https://thanhnien.vn/nhung-tuyen-duong-nao-o-tphcm-he-mua-lon-la-ngap-185261004175107092.htm",
     "https://vietnamnet.vn/tphcm-ngap-nang-sau-mua-lon-loat-phuong-tien-chet-may-nuoc-tran-vao-ca-xe-buyt-2561597.html",
     "https://thanhnien.vn/tphcm-len-ke-hoach-giai-quyet-50-diem-ngap-nang-185261004224119279.htm",
     "https://tuoitre.vn/vi-sao-nhieu-diem-ngap-o-tphcm-nay-ngap-lau-nuoc-rut-cham-100261008161043584.htm",
     "https://thanhnien.vn/mua-lon-o-tphcm-duong-ma-lo-lai-thanh-song-nhieu-xe-chet-may-185260925211655974.htm",
     "https://thanhnien.vn/tphcm-khoi-cong-du-an-chong-ngap-duong-ma-lo-trong-thang-11-185261008165207595.htm"
    ],
    "notes": "",
    "last_verified": "2026-10-09"
   }
  },
  {
   "type": "Feature",
   "geometry": {
    "type": "LineString",
    "coordinates": [
     [
      106.614318,
      10.723822
     ],
     [
      106.614313,
      10.724066
     ],
     [
      106.614199,
      10.724328
     ],
     [
      106.612671,
      10.727343
     ],
     [
      106.612613,
      10.727564
     ],
     [
      106.612663,
      10.728086
     ],
     [
      106.61258,
      10.728181
     ],
     [
      106.612201,
      10.729131
     ],
     [
      106.612057,
      10.729259
     ],
     [
      106.611209,
      10.729624
     ],
     [
      106.610316,
      10.730145
     ]
    ]
   },
   "properties": {
    "id": "hcmc-0017",
    "name_vi": "Đường Lê Cơ (đoạn Võ Văn Kiệt – Kinh Dương Vương)",
    "name_en": "Le Co Street (Vo Van Kiet – Kinh Duong Vuong section)",
    "street": "Lê Cơ",
    "ward": "Phường An Lạc",
    "legacy_district": "Bình Tân",
    "cause": "rain",
    "depth_cm": {
     "min": 30,
     "max": 50
    },
    "frequency": "occasional",
    "status": "active",
    "past_events": [
     {
      "date": "2025-06-10",
      "cause": "rain",
      "description_vi": "Nước ngập đến đầu gối.",
      "description_en": "Knee-deep water.",
      "source": "https://news.tuoitre.vn/downpour-leaves-streets-flooded-in-several-parts-of-ho-chi-minh-city-103250611114510928.htm",
      "depth_cm": 50
     },
     {
      "date": "2024-09-25",
      "cause": "rain",
      "description_vi": "Đoạn Võ Văn Kiệt – Kinh Dương Vương có đoạn ngập hết bánh xe máy.",
      "description_en": "Water covered motorbike wheels on the Vo Van Kiet – Kinh Duong Vuong stretch.",
      "source": "https://tuoitre.vn/mua-lon-ao-qua-20-phut-nhieu-duong-o-quan-binh-tan-nhu-ao-ca-20240925145058694.htm",
      "depth_cm": 40
     }
    ],
    "sources": [
     "https://news.tuoitre.vn/downpour-leaves-streets-flooded-in-several-parts-of-ho-chi-minh-city-103250611114510928.htm",
     "https://tuoitre.vn/mua-lon-ao-qua-20-phut-nhieu-duong-o-quan-binh-tan-nhu-ao-ca-20240925145058694.htm",
     "https://tuoitre.vn/vi-sao-mua-20-phut-nhieu-duong-o-quan-binh-tan-ngap-nhu-ao-ca-20240926124434423.htm"
    ],
    "notes": "",
    "last_verified": "2026-10-09"
   }
  },
  {
   "type": "Feature",
   "geometry": {
    "type": "LineString",
    "coordinates": [
     [
      106.751316,
      10.853565
     ],
     [
      106.750966,
      10.854069
     ],
     [
      106.750641,
      10.855559
     ],
     [
      106.750017,
      10.856785
     ]
    ]
   },
   "properties": {
    "id": "hcmc-0018",
    "name_vi": "Đường Tô Ngọc Vân (đoạn Phạm Văn Đồng – Linh Đông)",
    "name_en": "To Ngoc Van Street (Pham Van Dong – Linh Dong section)",
    "street": "Tô Ngọc Vân",
    "ward": "Phường Hiệp Bình",
    "legacy_district": "Thủ Đức",
    "cause": "both",
    "depth_cm": {
     "min": 30,
     "max": 50
    },
    "frequency": "frequent",
    "status": "active",
    "past_events": [
     {
      "date": "2026-09-30",
      "cause": "rain",
      "description_vi": "Ngập sâu hơn nửa mét (phường Hiệp Bình).",
      "description_en": "More than half a metre deep.",
      "source": "https://dantri.com.vn/thoi-su/mua-lon-khien-duong-ngap-sau-nguoi-di-duong-nga-nhao-giua-dong-nuoc-xiet-20260930181627859.htm",
      "depth_cm": 50
     },
     {
      "date": "2026-09-22",
      "cause": "rain",
      "description_vi": "Cụm Tô Ngọc Vân – Linh Đông – Lý Tế Xuyên ngập nghiêm trọng, nước chảy xiết.",
      "description_en": "Serious flooding with fast-flowing water.",
      "source": "https://thanhnien.vn/nuoc-chay-cuon-cuon-giao-thong-hon-loan-trong-mua-lon-o-tphcm-gio-tan-tam-185260922191425244.htm"
     },
     {
      "date": "2026-09-18",
      "cause": "rain",
      "description_vi": "Tô Ngọc Vân ngập nước nặng nề.",
      "description_en": "Heavy flooding.",
      "source": "https://thanhnien.vn/mua-lon-o-tphcm-chieu-toi-nay-nuoc-chay-cuon-cuon-ngap-hon-1-tieng-185260918204010853.htm"
     },
     {
      "date": "2026-09-10",
      "cause": "rain",
      "description_vi": "Đường Tô Ngọc Vân ngập sâu.",
      "description_en": "Deep flooding on To Ngoc Van.",
      "source": "https://tuoitre.vn/mua-lon-la-duong-to-ngoc-van-cho-thu-duc-thanh-song-ngong-du-an-hon-5000-ti-100260912164509047.htm"
     },
     {
      "date": "2025-06-10",
      "cause": "rain",
      "description_vi": "Nước ngập lút bánh xe máy.",
      "description_en": "Water covered motorbike wheels.",
      "source": "https://dantri.com.vn/thoi-su/dau-mua-mua-khu-vuc-cho-thu-duc-o-tphcm-lai-ngap-nang-20250611101554975.htm",
      "depth_cm": 40
     }
    ],
    "sources": [
     "https://vnexpress.net/tra-cuu-159-diem-ngap-thuong-xuyen-tai-tp-hcm-5127780.html",
     "https://tuoitre.vn/danh-sach-122-diem-ngap-do-mua-lon-trieu-cuong-tai-tphcm-100261007160246997.htm",
     "https://thanhnien.vn/nhung-tuyen-duong-nao-o-tphcm-he-mua-lon-la-ngap-185261004175107092.htm",
     "https://dantri.com.vn/thoi-su/dau-mua-mua-khu-vuc-cho-thu-duc-o-tphcm-lai-ngap-nang-20250611101554975.htm",
     "https://tuoitre.vn/mua-lon-la-duong-to-ngoc-van-cho-thu-duc-thanh-song-ngong-du-an-hon-5000-ti-100260912164509047.htm",
     "https://dantri.com.vn/thoi-su/mua-lon-khien-duong-ngap-sau-nguoi-di-duong-nga-nhao-giua-dong-nuoc-xiet-20260930181627859.htm",
     "https://dantri.com.vn/thoi-tiet/duong-bien-thanh-song-nuoc-ngap-ngang-yen-xe-may-trong-con-mua-lon-o-tphcm-20260930184946211.htm",
     "https://thanhnien.vn/mua-lon-o-tphcm-chieu-toi-nay-nuoc-chay-cuon-cuon-ngap-hon-1-tieng-185260918204010853.htm",
     "https://thanhnien.vn/nuoc-chay-cuon-cuon-giao-thong-hon-loan-trong-mua-lon-o-tphcm-gio-tan-tam-185260922191425244.htm"
    ],
    "notes": "Section from CSGT (S08): giao Phạm Văn Đồng / giao Linh Đông.",
    "last_verified": "2026-10-09"
   }
  },
  {
   "type": "Feature",
   "geometry": {
    "type": "Polygon",
    "coordinates": [
     [
      [
       106.751828,
       10.851024
      ],
      [
       106.752196,
       10.849538
      ],
      [
       106.752687,
       10.848238
      ],
      [
       106.755069,
       10.847722
      ],
      [
       106.755732,
       10.849296
      ],
      [
       106.75465,
       10.852701
      ],
      [
       106.751828,
       10.851024
      ]
     ]
    ]
   },
   "properties": {
    "id": "hcmc-0019",
    "name_vi": "Khu vực chợ Thủ Đức (Kha Vạn Cân, Tâm Tâm Xã, Đặng Thị Rành, Dương Văn Cam, Hồ Văn Tư)",
    "name_en": "Thu Duc Market area (Kha Van Can, Tam Tam Xa, Dang Thi Ranh, Duong Van Cam, Ho Van Tu)",
    "street": "Kha Vạn Cân; Tâm Tâm Xã; Đặng Thị Rành; Dương Văn Cam; Hồ Văn Tư",
    "ward": "Phường Thủ Đức / Phường Linh Xuân",
    "legacy_district": "Thủ Đức",
    "cause": "both",
    "depth_cm": {
     "min": 5,
     "max": 50
    },
    "frequency": "frequent",
    "status": "active",
    "past_events": [
     {
      "date": "2026-09-10",
      "cause": "rain",
      "description_vi": "Khu vực chợ Thủ Đức thành sông.",
      "description_en": "Thu Duc market area turned into a river.",
      "source": "https://tuoitre.vn/mua-lon-la-duong-to-ngoc-van-cho-thu-duc-thanh-song-ngong-du-an-hon-5000-ti-100260912164509047.htm"
     },
     {
      "date": "2025-06-10",
      "cause": "rain",
      "description_vi": "Đường Dương Văn Cam nước ngập lút bánh xe máy.",
      "description_en": "Water covered motorbike wheels on Duong Van Cam.",
      "source": "https://dantri.com.vn/thoi-su/dau-mua-mua-khu-vuc-cho-thu-duc-o-tphcm-lai-ngap-nang-20250611101554975.htm",
      "depth_cm": 40
     }
    ],
    "sources": [
     "https://vnexpress.net/tra-cuu-159-diem-ngap-thuong-xuyen-tai-tp-hcm-5127780.html",
     "https://dantri.com.vn/thoi-su/tphcm-cong-bo-34-tuyen-duong-ngap-do-mua-va-trieu-cuong-20260625181340802.htm",
     "https://tuoitre.vn/tphcm-se-ra-soat-xu-ly-diem-ngap-nao-thu-tu-uu-tien-ra-sao-100261003170822626.htm",
     "https://dantri.com.vn/thoi-su/dau-mua-mua-khu-vuc-cho-thu-duc-o-tphcm-lai-ngap-nang-20250611101554975.htm",
     "https://www.sggp.org.vn/cap-bach-giai-quyet-ngap-khu-vuc-cho-thu-duc-post812486.html",
     "https://tuoitre.vn/mua-lon-la-duong-to-ngoc-van-cho-thu-duc-thanh-song-ngong-du-an-hon-5000-ti-100260912164509047.htm",
     "https://tuoitre.vn/phuong-linh-xuan-de-xuat-go-kho-tai-du-an-dai-hoc-quoc-gia-tp-hcm-ngap-cho-thu-duc-va-loat-dat-cong-20260511194311366.htm"
    ],
    "notes": "Real area hotspot; S10 lists 'Chợ Thủ Đức' as a heavy-flood area.",
    "last_verified": "2026-10-09"
   }
  },
  {
   "type": "Feature",
   "geometry": {
    "type": "LineString",
    "coordinates": [
     [
      106.733057,
      10.816409
     ],
     [
      106.732633,
      10.816939
     ],
     [
      106.732259,
      10.817207
     ],
     [
      106.731877,
      10.817366
     ],
     [
      106.731152,
      10.817435
     ],
     [
      106.730165,
      10.817414
     ],
     [
      106.729628,
      10.817284
     ],
     [
      106.72905,
      10.817031
     ],
     [
      106.728386,
      10.816526
     ]
    ]
   },
   "properties": {
    "id": "hcmc-0020",
    "name_vi": "Đường Nguyễn Văn Hưởng (đoạn hẻm 188 – 204, Thảo Điền)",
    "name_en": "Nguyen Van Huong Street (alleys 188–204 stretch, Thao Dien)",
    "street": "Nguyễn Văn Hưởng",
    "ward": "Phường An Khánh",
    "legacy_district": "Thủ Đức",
    "cause": "both",
    "depth_cm": {
     "min": 15,
     "max": 60
    },
    "frequency": "frequent",
    "status": "active",
    "past_events": [
     {
      "date": "2026-09-10",
      "cause": "rain",
      "description_vi": "Một số đoạn hẻm trên đường Nguyễn Văn Hưởng ngập cao hơn bánh xe máy, kéo dài đến chiều 11/9.",
      "description_en": "Some alleys off the street above motorbike wheels, lasting until the next afternoon.",
      "source": "https://thanhnien.vn/vi-sao-nhieu-hem-o-khu-thao-dien-ngap-tu-toi-den-chieu-hom-sau-185260921153913999.htm",
      "depth_cm": 40
     },
     {
      "date": "2025-11-06",
      "cause": "tide",
      "description_vi": "Ngập 30–60 cm (mô tả chung nhóm tuyến).",
      "description_en": "30–60 cm (group description).",
      "source": "https://vtv.vn/trieu-cuong-tai-tp-ho-chi-minh-vuot-dinh-lich-su-nhieu-khu-vuc-ngap-trong-bien-nuoc-10025110707063616.htm",
      "depth_cm": 60
     }
    ],
    "sources": [
     "https://vnexpress.net/tra-cuu-159-diem-ngap-thuong-xuyen-tai-tp-hcm-5127780.html",
     "https://dantri.com.vn/thoi-su/tphcm-cong-bo-34-tuyen-duong-ngap-do-mua-va-trieu-cuong-20260625181340802.htm",
     "https://news.tuoitre.vn/ho-chi-minh-city-lists-most-flood-prone-streets-including-one-in-former-thao-dien-103260626100336837.htm",
     "https://thanhnien.vn/danh-sach-23-tuyen-duong-bi-ngap-nuoc-do-trieu-cuong-o-tphcm-185251120195250754.htm",
     "https://tuoitre.vn/danh-sach-122-diem-ngap-do-mua-lon-trieu-cuong-tai-tphcm-100261007160246997.htm",
     "https://thanhnien.vn/nhung-tuyen-duong-nao-o-tphcm-he-mua-lon-la-ngap-185261004175107092.htm",
     "https://vtv.vn/trieu-cuong-tai-tp-ho-chi-minh-vuot-dinh-lich-su-nhieu-khu-vuc-ngap-trong-bien-nuoc-10025110707063616.htm",
     "https://thanhnien.vn/vi-sao-nhieu-hem-o-khu-thao-dien-ngap-tu-toi-den-chieu-hom-sau-185260921153913999.htm"
    ],
    "notes": "Thảo Điền – Quốc Hương – Nguyễn Văn Hưởng is one of six heavy areas for 2027 (S10).",
    "last_verified": "2026-10-09"
   }
  },
  {
   "type": "Feature",
   "geometry": {
    "type": "Point",
    "coordinates": [
     106.731728,
     10.808445
    ]
   },
   "properties": {
    "id": "hcmc-0021",
    "name_vi": "Giao lộ Thảo Điền – Quốc Hương",
    "name_en": "Thao Dien – Quoc Huong intersection",
    "street": "Quốc Hương; Thảo Điền",
    "ward": "Phường An Khánh",
    "legacy_district": "Thủ Đức",
    "cause": "both",
    "depth_cm": {
     "min": 30,
     "max": 60
    },
    "frequency": "frequent",
    "status": "active",
    "past_events": [
     {
      "date": "2025-11-06",
      "cause": "tide",
      "description_vi": "Quốc Hương – Nguyễn Văn Hưởng ngập 30–60 cm.",
      "description_en": "Quoc Huong – Nguyen Van Huong 30–60 cm.",
      "source": "https://vtv.vn/trieu-cuong-tai-tp-ho-chi-minh-vuot-dinh-lich-su-nhieu-khu-vuc-ngap-trong-bien-nuoc-10025110707063616.htm",
      "depth_cm": 60
     },
     {
      "date": "2025-06-10",
      "cause": "rain",
      "description_vi": "Quốc Hương ngập chỉ 30 phút sau khi mưa.",
      "description_en": "Quoc Huong flooded within 30 minutes of rain starting.",
      "source": "https://news.tuoitre.vn/downpour-leaves-streets-flooded-in-several-parts-of-ho-chi-minh-city-103250611114510928.htm"
     }
    ],
    "sources": [
     "https://vnexpress.net/tra-cuu-159-diem-ngap-thuong-xuyen-tai-tp-hcm-5127780.html",
     "https://tuoitre.vn/9-thang-dau-nam-toan-tp-hcm-co-30-tuyen-duong-ngap-khi-mua-20241015175215262.htm",
     "https://tuoitre.vn/danh-sach-122-diem-ngap-do-mua-lon-trieu-cuong-tai-tphcm-100261007160246997.htm",
     "https://thanhnien.vn/nhung-tuyen-duong-nao-o-tphcm-he-mua-lon-la-ngap-185261004175107092.htm",
     "https://vtv.vn/trieu-cuong-tai-tp-ho-chi-minh-vuot-dinh-lich-su-nhieu-khu-vuc-ngap-trong-bien-nuoc-10025110707063616.htm",
     "https://news.tuoitre.vn/downpour-leaves-streets-flooded-in-several-parts-of-ho-chi-minh-city-103250611114510928.htm",
     "https://thanhnien.vn/bao-gio-duong-phan-huy-ich-khu-thao-dien-het-ngap-so-xay-dung-tphcm-tra-loi-185261008164938974.htm"
    ],
    "notes": "Intersection named in CSGT list (S08).",
    "last_verified": "2026-10-09"
   }
  },
  {
   "type": "Feature",
   "geometry": {
    "type": "Point",
    "coordinates": [
     106.756528,
     10.810069
    ]
   },
   "properties": {
    "id": "hcmc-0022",
    "name_vi": "Đường Võ Nguyên Giáp – chân cầu Rạch Chiếc (phía An Khánh)",
    "name_en": "Vo Nguyen Giap Street – Rach Chiec Bridge foot (An Khanh side)",
    "street": "Võ Nguyên Giáp",
    "ward": "Phường An Khánh",
    "legacy_district": "Thủ Đức",
    "cause": "both",
    "depth_cm": {
     "min": 15,
     "max": 30
    },
    "frequency": "frequent",
    "status": "active",
    "past_events": [],
    "sources": [
     "https://dantri.com.vn/thoi-su/tphcm-cong-bo-34-tuyen-duong-ngap-do-mua-va-trieu-cuong-20260625181340802.htm",
     "https://news.tuoitre.vn/ho-chi-minh-city-lists-most-flood-prone-streets-including-one-in-former-thao-dien-103260626100336837.htm",
     "https://thanhnien.vn/danh-sach-23-tuyen-duong-bi-ngap-nuoc-do-trieu-cuong-o-tphcm-185251120195250754.htm",
     "https://tuoitre.vn/danh-sach-122-diem-ngap-do-mua-lon-trieu-cuong-tai-tphcm-100261007160246997.htm"
    ],
    "notes": "CSGT: 'Chân cầu Rạch Chiếc, hướng ra ga metro Rạch Chiếc (phường An Khánh)'.",
    "last_verified": "2026-10-09"
   }
  },
  {
   "type": "Feature",
   "geometry": {
    "type": "Point",
    "coordinates": [
     106.737022,
     10.780964
    ]
   },
   "properties": {
    "id": "hcmc-0023",
    "name_vi": "Đường Mai Chí Thọ – trước chung cư New City",
    "name_en": "Mai Chi Tho Avenue – in front of New City apartments",
    "street": "Mai Chí Thọ",
    "ward": "Phường An Khánh",
    "legacy_district": "Thủ Đức",
    "cause": "tide",
    "depth_cm": {
     "min": 15,
     "max": 30
    },
    "frequency": "frequent",
    "status": "active",
    "past_events": [
     {
      "date": "2026-10-01",
      "cause": "rain",
      "description_vi": "Mưa lớn khiến đường Mai Chí Thọ nhiều đoạn ngập sâu.",
      "description_en": "Heavy rain: several deep stretches on Mai Chi Tho.",
      "source": "https://thanhnien.vn/mua-lon-gio-tan-tam-ham-vuot-song-sai-gon-ket-cung-duong-mai-chi-tho-ngap-nhu-song-185261001191635746.htm"
     }
    ],
    "sources": [
     "https://thanhnien.vn/danh-sach-23-tuyen-duong-bi-ngap-nuoc-do-trieu-cuong-o-tphcm-185251120195250754.htm",
     "https://tuoitre.vn/23-tuyen-duong-ngap-do-trieu-cuong-o-tp-hcm-nguoi-dan-can-ghi-nho-20251120193639188.htm",
     "https://tuoitre.vn/danh-sach-122-diem-ngap-do-mua-lon-trieu-cuong-tai-tphcm-100261007160246997.htm",
     "https://thanhnien.vn/mua-lon-gio-tan-tam-ham-vuot-song-sai-gon-ket-cung-duong-mai-chi-tho-ngap-nhu-song-185261001191635746.htm"
    ],
    "notes": "",
    "last_verified": "2026-10-09"
   }
  },
  {
   "type": "Feature",
   "geometry": {
    "type": "LineString",
    "coordinates": [
     [
      106.63447,
      10.8334
     ],
     [
      106.637947,
      10.840824
     ],
     [
      106.640114,
      10.844292
     ]
    ]
   },
   "properties": {
    "id": "hcmc-0024",
    "name_vi": "Đường Phan Huy Ích (đoạn qua phường An Hội Tây, đến Quang Trung)",
    "name_en": "Phan Huy Ich Street (An Hoi Tay ward section, to Quang Trung)",
    "street": "Phan Huy Ích",
    "ward": "Phường An Hội Tây",
    "legacy_district": "Gò Vấp",
    "cause": "rain",
    "depth_cm": {
     "min": 10,
     "max": 30
    },
    "frequency": "frequent",
    "status": "active",
    "past_events": [
     {
      "date": "2026-10-01",
      "cause": "rain",
      "description_vi": "Đường Phan Huy Ích còn ngập, mức ngập thấp hơn tối 30/9.",
      "description_en": "Still flooded, lower than on 30 Sep.",
      "source": "https://www.vietnamplus.vn/can-canh-nhieu-tuyen-duong-o-thanh-pho-ho-chi-minh-ngap-sau-post1139548.vnp"
     }
    ],
    "sources": [
     "https://vnexpress.net/tra-cuu-159-diem-ngap-thuong-xuyen-tai-tp-hcm-5127780.html",
     "https://dantri.com.vn/thoi-su/tphcm-cong-bo-34-tuyen-duong-ngap-do-mua-va-trieu-cuong-20260625181340802.htm",
     "https://tuoitre.vn/9-thang-dau-nam-toan-tp-hcm-co-30-tuyen-duong-ngap-khi-mua-20241015175215262.htm",
     "https://www.vietnamplus.vn/can-canh-nhieu-tuyen-duong-o-thanh-pho-ho-chi-minh-ngap-sau-post1139548.vnp",
     "https://thanhnien.vn/bao-gio-duong-phan-huy-ich-khu-thao-dien-het-ngap-so-xay-dung-tphcm-tra-loi-185261008164938974.htm"
    ],
    "notes": "",
    "last_verified": "2026-10-09"
   }
  },
  {
   "type": "Feature",
   "geometry": {
    "type": "LineString",
    "coordinates": [
     [
      106.743699,
      10.841359
     ],
     [
      106.743734,
      10.841471
     ],
     [
      106.744529,
      10.842276
     ],
     [
      106.745081,
      10.843174
     ],
     [
      106.745169,
      10.843831
     ],
     [
      106.74659,
      10.847486
     ],
     [
      106.750017,
      10.856785
     ]
    ]
   },
   "properties": {
    "id": "hcmc-0025",
    "name_vi": "Đường Linh Đông (phường Hiệp Bình)",
    "name_en": "Linh Dong Street (Hiep Binh ward)",
    "street": "Linh Đông",
    "ward": "Phường Hiệp Bình",
    "legacy_district": "Thủ Đức",
    "cause": "rain",
    "depth_cm": {
     "min": 50,
     "max": 70
    },
    "frequency": "frequent",
    "status": "active",
    "past_events": [
     {
      "date": "2026-09-30",
      "cause": "rain",
      "description_vi": "Có đoạn ngập gần đến yên xe máy.",
      "description_en": "Nearly up to the motorbike seat in places.",
      "source": "https://dantri.com.vn/thoi-tiet/duong-bien-thanh-song-nuoc-ngap-ngang-yen-xe-may-trong-con-mua-lon-o-tphcm-20260930184946211.htm",
      "depth_cm": 70
     },
     {
      "date": "2026-09-22",
      "cause": "rain",
      "description_vi": "Ngập nghiêm trọng, nước chảy cuồn cuộn.",
      "description_en": "Serious flooding, torrents of water.",
      "source": "https://thanhnien.vn/nuoc-chay-cuon-cuon-giao-thong-hon-loan-trong-mua-lon-o-tphcm-gio-tan-tam-185260922191425244.htm"
     },
     {
      "date": "2026-09-18",
      "cause": "rain",
      "description_vi": "Đoạn ngập khoảng 400 m, nước hơn nửa mét, chảy xiết.",
      "description_en": "About 400 m flooded, over half a metre, fast-flowing.",
      "source": "https://thanhnien.vn/mua-lon-o-tphcm-chieu-toi-nay-nuoc-chay-cuon-cuon-ngap-hon-1-tieng-185260918204010853.htm",
      "depth_cm": 50
     }
    ],
    "sources": [
     "https://tuoitre.vn/danh-sach-122-diem-ngap-do-mua-lon-trieu-cuong-tai-tphcm-100261007160246997.htm",
     "https://thanhnien.vn/nhung-tuyen-duong-nao-o-tphcm-he-mua-lon-la-ngap-185261004175107092.htm",
     "https://dantri.com.vn/thoi-su/mua-lon-khien-duong-ngap-sau-nguoi-di-duong-nga-nhao-giua-dong-nuoc-xiet-20260930181627859.htm",
     "https://dantri.com.vn/thoi-tiet/duong-bien-thanh-song-nuoc-ngap-ngang-yen-xe-may-trong-con-mua-lon-o-tphcm-20260930184946211.htm",
     "https://thanhnien.vn/mua-lon-o-tphcm-chieu-toi-nay-nuoc-chay-cuon-cuon-ngap-hon-1-tieng-185260918204010853.htm",
     "https://thanhnien.vn/nuoc-chay-cuon-cuon-giao-thong-hon-loan-trong-mua-lon-o-tphcm-gio-tan-tam-185260922191425244.htm"
    ],
    "notes": "New in v2 (from the CSGT list).",
    "last_verified": "2026-10-09"
   }
  },
  {
   "type": "Feature",
   "geometry": {
    "type": "LineString",
    "coordinates": [
     [
      106.748821,
      10.853632
     ],
     [
      106.748441,
      10.853851
     ],
     [
      106.748126,
      10.854126
     ],
     [
      106.747224,
      10.855413
     ],
     [
      106.744478,
      10.856721
     ],
     [
      106.742324,
      10.857846
     ]
    ]
   },
   "properties": {
    "id": "hcmc-0026",
    "name_vi": "Đường Lý Tế Xuyên (phường Hiệp Bình)",
    "name_en": "Ly Te Xuyen Street (Hiep Binh ward)",
    "street": "Lý Tế Xuyên",
    "ward": "Phường Hiệp Bình",
    "legacy_district": "Thủ Đức",
    "cause": "rain",
    "depth_cm": {
     "min": 30,
     "max": 50
    },
    "frequency": "frequent",
    "status": "active",
    "past_events": [
     {
      "date": "2026-09-30",
      "cause": "rain",
      "description_vi": "Ngập sâu hơn nửa mét, nước qua bánh xe.",
      "description_en": "More than half a metre, above the wheels.",
      "source": "https://dantri.com.vn/thoi-su/mua-lon-khien-duong-ngap-sau-nguoi-di-duong-nga-nhao-giua-dong-nuoc-xiet-20260930181627859.htm",
      "depth_cm": 50
     },
     {
      "date": "2026-09-22",
      "cause": "rain",
      "description_vi": "Ngập sâu, nước chảy cuồn cuộn.",
      "description_en": "Deep, fast-flowing water.",
      "source": "https://thanhnien.vn/nuoc-chay-cuon-cuon-giao-thong-hon-loan-trong-mua-lon-o-tphcm-gio-tan-tam-185260922191425244.htm"
     },
     {
      "date": "2026-09-18",
      "cause": "rain",
      "description_vi": "Nước ngập hơn bánh xe máy, chảy như thác.",
      "description_en": "Above motorbike wheels, flowing like a waterfall.",
      "source": "https://thanhnien.vn/mua-lon-o-tphcm-chieu-toi-nay-nuoc-chay-cuon-cuon-ngap-hon-1-tieng-185260918204010853.htm",
      "depth_cm": 40
     }
    ],
    "sources": [
     "https://tuoitre.vn/danh-sach-122-diem-ngap-do-mua-lon-trieu-cuong-tai-tphcm-100261007160246997.htm",
     "https://thanhnien.vn/nhung-tuyen-duong-nao-o-tphcm-he-mua-lon-la-ngap-185261004175107092.htm",
     "https://dantri.com.vn/thoi-su/mua-lon-khien-duong-ngap-sau-nguoi-di-duong-nga-nhao-giua-dong-nuoc-xiet-20260930181627859.htm",
     "https://tuoitre.vn/vi-sao-nhieu-diem-ngap-o-tphcm-nay-ngap-lau-nuoc-rut-cham-100261008161043584.htm",
     "https://thanhnien.vn/mua-lon-o-tphcm-chieu-toi-nay-nuoc-chay-cuon-cuon-ngap-hon-1-tieng-185260918204010853.htm",
     "https://thanhnien.vn/nuoc-chay-cuon-cuon-giao-thong-hon-loan-trong-mua-lon-o-tphcm-gio-tan-tam-185260922191425244.htm"
    ],
    "notes": "New in v2 (from the CSGT list). S44 says the worst part is 'khu vực đầu đường'.",
    "last_verified": "2026-10-09"
   }
  },
  {
   "type": "Feature",
   "geometry": {
    "type": "LineString",
    "coordinates": [
     [
      106.717952,
      10.79983
     ],
     [
      106.718502,
      10.800924
     ],
     [
      106.719724,
      10.802866
     ],
     [
      106.719922,
      10.803072
     ],
     [
      106.721703,
      10.8037
     ]
    ]
   },
   "properties": {
    "id": "hcmc-0027",
    "name_vi": "Đường Nguyễn Văn Thương (phường Thạnh Mỹ Tây)",
    "name_en": "Nguyen Van Thuong Street (Thanh My Tay ward)",
    "street": "Nguyễn Văn Thương",
    "ward": "Phường Thạnh Mỹ Tây",
    "legacy_district": "Bình Thạnh",
    "cause": "rain",
    "depth_cm": {
     "min": 30,
     "max": 70
    },
    "frequency": "frequent",
    "status": "active",
    "past_events": [
     {
      "date": "2026-09-22",
      "cause": "rain",
      "description_vi": "Ngập sâu, kéo dài; nước lên gần bánh xe máy.",
      "description_en": "Deep and long-lasting; nearly up to the wheels.",
      "source": "https://thanhnien.vn/nuoc-chay-cuon-cuon-giao-thong-hon-loan-trong-mua-lon-o-tphcm-gio-tan-tam-185260922191425244.htm",
      "depth_cm": 40
     }
    ],
    "sources": [
     "https://thanhnien.vn/nhung-tuyen-duong-nao-o-tphcm-he-mua-lon-la-ngap-185261004175107092.htm",
     "https://thanhnien.vn/tphcm-len-ke-hoach-giai-quyet-50-diem-ngap-nang-185261004224119279.htm",
     "https://thanhnien.vn/nuoc-chay-cuon-cuon-giao-thong-hon-loan-trong-mua-lon-o-tphcm-gio-tan-tam-185260922191425244.htm"
    ],
    "notes": "New in v2.",
    "last_verified": "2026-10-09"
   }
  },
  {
   "type": "Feature",
   "geometry": {
    "type": "LineString",
    "coordinates": [
     [
      106.664372,
      10.805905
     ],
     [
      106.664914,
      10.810159
     ],
     [
      106.665163,
      10.812441
     ],
     [
      106.665242,
      10.813305
     ]
    ]
   },
   "properties": {
    "id": "hcmc-0028",
    "name_vi": "Đường Trường Sơn (lối ra sân bay Tân Sơn Nhất)",
    "name_en": "Truong Son Street (Tan Son Nhat airport access)",
    "street": "Trường Sơn",
    "ward": "Phường Tân Sơn Hòa",
    "legacy_district": "Tân Bình",
    "cause": "rain",
    "depth_cm": {
     "min": 10,
     "max": 15
    },
    "frequency": "frequent",
    "status": "active",
    "past_events": [
     {
      "date": "2026-10-07",
      "cause": "rain",
      "description_vi": "Trường Sơn (lối ra sân bay) ngập nặng sau mưa lớn.",
      "description_en": "Heavy flooding at the airport exit.",
      "source": "https://vietnamnet.vn/tphcm-lai-mua-lon-kem-sam-set-nghin-nguoi-chat-vat-vi-ngap-va-ket-xe-2562648.html"
     },
     {
      "date": "2026-10-01",
      "cause": "rain",
      "description_vi": "Ngập sâu khoảng 0,1–0,15 m (Sở Xây dựng).",
      "description_en": "About 0.10–0.15 m deep (Construction Dept).",
      "source": "https://thanhnien.vn/ngap-cua-ngo-san-bay-tan-son-nhat-so-xay-dung-tphcm-neu-giai-phap-185261008204929402.htm",
      "depth_cm": 15
     }
    ],
    "sources": [
     "https://vnexpress.net/tra-cuu-159-diem-ngap-thuong-xuyen-tai-tp-hcm-5127780.html",
     "https://tuoitre.vn/9-thang-dau-nam-toan-tp-hcm-co-30-tuyen-duong-ngap-khi-mua-20241015175215262.htm",
     "https://tuoitre.vn/neu-mua-lon-30-phut-tai-phcm-nguoi-dan-luu-y-nhung-doan-duong-de-ngap-nuoc-nao-10026092311590247.htm",
     "https://vietnamnet.vn/tphcm-lai-mua-lon-kem-sam-set-nghin-nguoi-chat-vat-vi-ngap-va-ket-xe-2562648.html",
     "https://thanhnien.vn/ngap-cua-ngo-san-bay-tan-son-nhat-so-xay-dung-tphcm-neu-giai-phap-185261008204929402.htm"
    ],
    "notes": "Moved from candidates (official depth found).",
    "last_verified": "2026-10-09"
   }
  },
  {
   "type": "Feature",
   "geometry": {
    "type": "LineString",
    "coordinates": [
     [
      106.645677,
      10.741392
     ],
     [
      106.643884,
      10.740289
     ]
    ]
   },
   "properties": {
    "id": "hcmc-0029",
    "name_vi": "Đường Võ Văn Kiệt (đoạn Phạm Phú Thứ – Bình Tiên)",
    "name_en": "Vo Van Kiet Boulevard (Pham Phu Thu – Binh Tien section)",
    "street": "Võ Văn Kiệt",
    "ward": "Phường Bình Tiên",
    "legacy_district": "Quận 6",
    "cause": "tide",
    "depth_cm": {
     "min": 15,
     "max": 30
    },
    "frequency": "frequent",
    "status": "active",
    "past_events": [
     {
      "date": "2025-11-20",
      "cause": "tide",
      "description_vi": "Một đoạn Võ Văn Kiệt (phường Bình Tiên) bị ngập.",
      "description_en": "A stretch in Binh Tien ward flooded.",
      "source": "https://tienphong.vn/trieu-cuong-tan-cong-khu-vuc-cho-lon-o-tphcm-post1798035.tpo"
     },
     {
      "date": "2025-11-05",
      "cause": "tide",
      "description_vi": "Làn hỗn hợp dài hơn 500 m đoạn qua phường Bình Tiên ngập sâu.",
      "description_en": "Over 500 m of the mixed lane deeply flooded.",
      "source": "https://tienphong.vn/trieu-cuong-dang-cao-khu-vuc-cho-lon-o-tphcm-hoa-song-post1793751.tpo"
     }
    ],
    "sources": [
     "https://tuoitre.vn/danh-sach-122-diem-ngap-do-mua-lon-trieu-cuong-tai-tphcm-100261007160246997.htm",
     "https://tienphong.vn/trieu-cuong-dang-cao-khu-vuc-cho-lon-o-tphcm-hoa-song-post1793751.tpo",
     "https://tienphong.vn/trieu-cuong-tan-cong-khu-vuc-cho-lon-o-tphcm-post1798035.tpo",
     "https://tienphong.vn/mua-lon-tu-chieu-den-toi-nguoi-dan-tphcm-chat-vat-ve-nha-post1883131.tpo"
    ],
    "notes": "New in v2; fills former Q6.",
    "last_verified": "2026-10-09"
   }
  },
  {
   "type": "Feature",
   "geometry": {
    "type": "LineString",
    "coordinates": [
     [
      106.654552,
      10.750724
     ],
     [
      106.655523,
      10.747111
     ]
    ]
   },
   "properties": {
    "id": "hcmc-0030",
    "name_vi": "Đường Gò Công (phường Chợ Lớn)",
    "name_en": "Go Cong Street (Cho Lon ward)",
    "street": "Gò Công",
    "ward": "Phường Chợ Lớn",
    "legacy_district": "Quận 5",
    "cause": "tide",
    "depth_cm": {
     "min": 15,
     "max": 30
    },
    "frequency": "frequent",
    "status": "active",
    "past_events": [
     {
      "date": "2025-11-20",
      "cause": "tide",
      "description_vi": "Nước dâng cao gây ngập một đoạn đường Gò Công.",
      "description_en": "High water flooded a stretch again.",
      "source": "https://tienphong.vn/trieu-cuong-tan-cong-khu-vuc-cho-lon-o-tphcm-post1798035.tpo"
     },
     {
      "date": "2025-11-05",
      "cause": "both",
      "description_vi": "Ngập một đoạn khoảng 500 m, nhiều vị trí rất sâu.",
      "description_en": "About 500 m flooded, very deep in places.",
      "source": "https://tienphong.vn/trieu-cuong-dang-cao-khu-vuc-cho-lon-o-tphcm-hoa-song-post1793751.tpo"
     }
    ],
    "sources": [
     "https://tuoitre.vn/danh-sach-122-diem-ngap-do-mua-lon-trieu-cuong-tai-tphcm-100261007160246997.htm",
     "https://tienphong.vn/trieu-cuong-dang-cao-khu-vuc-cho-lon-o-tphcm-hoa-song-post1793751.tpo",
     "https://tienphong.vn/trieu-cuong-tan-cong-khu-vuc-cho-lon-o-tphcm-post1798035.tpo"
    ],
    "notes": "New in v2; fills former Q5.",
    "last_verified": "2026-10-09"
   }
  },
  {
   "type": "Feature",
   "geometry": {
    "type": "LineString",
    "coordinates": [
     [
      106.629547,
      10.723719
     ],
     [
      106.629945,
      10.724583
     ],
     [
      106.631208,
      10.72698
     ],
     [
      106.632268,
      10.729334
     ],
     [
      106.633085,
      10.730952
     ],
     [
      106.633855,
      10.732629
     ],
     [
      106.633853,
      10.732902
     ]
    ]
   },
   "properties": {
    "id": "hcmc-0031",
    "name_vi": "Đường Phú Định (phường Phú Định)",
    "name_en": "Phu Dinh Street (Phu Dinh ward)",
    "street": "Phú Định",
    "ward": "Phường Phú Định",
    "legacy_district": "Quận 8",
    "cause": "tide",
    "depth_cm": {
     "min": 50,
     "max": 70
    },
    "frequency": "frequent",
    "status": "active",
    "past_events": [
     {
      "date": "2025-11-20",
      "cause": "tide",
      "description_vi": "Đường Phú Định bị ngập sâu; người dân đắp bao cát.",
      "description_en": "Phu Dinh Street deeply flooded; residents sandbagging.",
      "source": "https://tienphong.vn/trieu-cuong-tan-cong-khu-vuc-cho-lon-o-tphcm-post1798035.tpo"
     },
     {
      "date": "2025-11-05",
      "cause": "tide",
      "description_vi": "Các tuyến đường khu Phú Định ngập sâu, nước gần tới yên xe máy.",
      "description_en": "Roads in the Phu Dinh area nearly seat-deep.",
      "source": "https://vietnamnet.vn/trieu-cuong-chua-dat-dinh-nhieu-noi-tphcm-da-menh-mong-nuoc-2459742.html",
      "depth_cm": 70
     }
    ],
    "sources": [
     "https://tienphong.vn/trieu-cuong-dang-cao-khu-vuc-cho-lon-o-tphcm-hoa-song-post1793751.tpo",
     "https://tienphong.vn/trieu-cuong-tan-cong-khu-vuc-cho-lon-o-tphcm-post1798035.tpo",
     "https://vietnamnet.vn/trieu-cuong-chua-dat-dinh-nhieu-noi-tphcm-da-menh-mong-nuoc-2459742.html"
    ],
    "notes": "New in v2.",
    "last_verified": "2026-10-09"
   }
  }
 ]
}